HIERARCHY
ROOT Hips
{
  OFFSET 0.0000 0.0000 0.0000
  CHANNELS 6 Xposition Yposition Zposition Zrotation Xrotation Yrotation
  JOINT Spine
  {
    OFFSET 0.0000 12.0000 0.0000
    CHANNELS 3 Zrotation Xrotation Yrotation
    JOINT Spine1
    {
      OFFSET 0.0000 12.0000 0.0000
      CHANNELS 3 Zrotation Xrotation Yrotation
      JOINT Neck
      {
        OFFSET 0.0000 6.0000 0.0000
        CHANNELS 3 Zrotation Xrotation Yrotation
        JOINT Head
        {
          OFFSET 0.0000 8.0000 0.0000
          CHANNELS 3 Zrotation Xrotation Yrotation
          End Site
          {
            OFFSET 0.0000 10.0000 0.0000
          }
        }
      }
      JOINT LeftArm
      {
        OFFSET 15.0000 0.0000 0.0000
        CHANNELS 3 Zrotation Xrotation Yrotation
        JOINT LeftForeArm
        {
          OFFSET 25.0000 0.0000 0.0000
          CHANNELS 3 Zrotation Xrotation Yrotation
          JOINT LeftHand
          {
            OFFSET 22.0000 0.0000 0.0000
            CHANNELS 3 Zrotation Xrotation Yrotation
            End Site
            {
              OFFSET 10.0000 0.0000 0.0000
            }
          }
        }
      }
      JOINT RightArm
      {
        OFFSET -15.0000 0.0000 0.0000
        CHANNELS 3 Zrotation Xrotation Yrotation
        JOINT RightForeArm
        {
          OFFSET -25.0000 0.0000 0.0000
          CHANNELS 3 Zrotation Xrotation Yrotation
          JOINT RightHand
          {
            OFFSET -22.0000 0.0000 0.0000
            CHANNELS 3 Zrotation Xrotation Yrotation
            End Site
            {
              OFFSET -10.0000 0.0000 0.0000
            }
          }
        }
      }
    }
  }
  JOINT LeftUpLeg
  {
    OFFSET 10.0000 0.0000 0.0000
    CHANNELS 3 Zrotation Xrotation Yrotation
    JOINT LeftLeg
    {
      OFFSET 0.0000 -43.0000 0.0000
      CHANNELS 3 Zrotation Xrotation Yrotation
      JOINT LeftFoot
      {
        OFFSET 0.0000 -40.0000 0.0000
        CHANNELS 3 Zrotation Xrotation Yrotation
        End Site
        {
          OFFSET 0.0000 -5.0000 5.0000
        }
      }
    }
  }
  JOINT RightUpLeg
  {
    OFFSET -10.0000 0.0000 0.0000
    CHANNELS 3 Zrotation Xrotation Yrotation
    JOINT RightLeg
    {
      OFFSET 0.0000 -43.0000 0.0000
      CHANNELS 3 Zrotation Xrotation Yrotation
      JOINT RightFoot
      {
        OFFSET 0.0000 -40.0000 0.0000
        CHANNELS 3 Zrotation Xrotation Yrotation
        End Site
        {
          OFFSET 0.0000 -5.0000 5.0000
        }
      }
    }
  }
}
MOTION
Frames: 73
Frame Time: 0.041667
-0.2873 -7.2227 -0.0384 142.2356 5.7365 84.2683 -0.0000 0.0000 0.0000 -0.0000 0.0000 0.0000 46.7469 6.0476 -2.6157 -0.0000 0.0000 0.0000 91.7124 -29.2183 -28.3931 -45.8783 -25.2742 55.8257 -0.0000 0.0000 0.0000 -95.6014 -18.8553 17.1239 -22.4186 4.0500 -20.2324 -0.0000 0.0000 0.0000 131.3971 -35.3228 70.3774 -156.5418 30.7352 105.8633 -0.0000 0.0000 0.0000 159.5616 -26.0066 104.0454 -160.7120 54.8256 143.7179 -0.0000 0.0000 0.0000
-0.3068 -7.2080 -0.0584 136.5303 2.8826 86.3748 -0.0000 0.0000 0.0000 -0.0000 0.0000 0.0000 38.2688 5.7855 -2.0088 -0.0000 0.0000 0.0000 85.0554 -23.2793 -25.3153 -46.1681 -10.2263 23.7133 -0.0000 0.0000 0.0000 -88.5353 -23.8956 24.4960 -27.4896 4.0876 -16.6011 -0.0000 0.0000 0.0000 99.2314 -44.1901 51.0268 -120.2085 43.0022 68.8369 -0.0000 0.0000 0.0000 160.9076 -28.5346 113.0435 -169.7354 50.8399 158.5967 -0.0000 0.0000 0.0000
-0.3242 -7.1898 -0.0699 132.1214 -0.5136 86.5315 -0.0000 0.0000 0.0000 -0.0000 0.0000 0.0000 33.2875 5.8712 -1.7566 -0.0000 0.0000 0.0000 83.7138 -19.4517 -21.6614 -37.0135 -3.1011 9.2468 -0.0000 0.0000 0.0000 -84.8239 -25.1254 27.4183 -26.8822 3.3267 -13.8558 -0.0000 0.0000 0.0000 89.1463 -47.4167 46.7913 -79.8366 45.2429 38.4413 -0.0000 0.0000 0.0000 163.9500 -31.7710 127.2913 177.6531 47.3733 -174.6533 -0.0000 0.0000 0.0000
-0.3394 -7.1682 -0.0730 128.7245 -4.5148 85.1225 -0.0000 0.0000 0.0000 -0.0000 0.0000 0.0000 31.4409 6.5092 -1.8340 -0.0000 0.0000 0.0000 85.9616 -16.8841 -18.0984 -30.8443 -1.2547 4.5461 -0.0000 0.0000 0.0000 -84.1836 -24.5426 27.0774 -24.4444 3.1666 -14.5439 -0.0000 0.0000 0.0000 94.1251 -50.6206 53.8842 -66.3982 47.7904 32.3344 -0.0000 0.0000 0.0000 169.3062 -35.6148 147.5101 163.0829 41.3380 -136.9714 -0.0000 0.0000 0.0000
-0.3481 -7.1307 -0.0698 124.8726 -8.2196 82.3074 -0.0000 0.0000 0.0000 -0.0000 0.0000 0.0000 30.8786 8.1698 -2.2599 -0.0000 0.0000 0.0000 90.9969 -14.3078 -14.0635 -25.0868 -1.0601 4.7619 -0.0000 0.0000 0.0000 -86.9470 -20.7379 21.8467 -20.2355 3.2705 -18.1787 -0.0000 0.0000 0.0000 112.8956 -54.9366 76.1841 -86.8320 63.3353 60.5388 -0.0000 0.0000 0.0000 179.0128 -42.5017 177.4618 149.8394 29.4113 -88.4918 -0.0000 0.0000 0.0000
-0.3729 -7.1222 -0.0516 124.0493 -14.1590 78.3408 -0.0000 0.0000 0.0000 -0.0000 0.0000 0.0000 34.9631 12.8345 -4.0574 -0.0000 0.0000 0.0000 95.0552 -14.0517 -12.8740 -17.8113 -1.5897 10.1194 -0.0000 0.0000 0.0000 -84.1774 -17.6646 19.5229 -15.5060 3.2034 -23.2123 -0.0000 0.0000 0.0000 143.5540 -53.2304 113.3888 -161.0572 64.5179 150.3887 -0.0000 0.0000 0.0000 -165.1007 -45.9218 -145.6961 146.9331 13.0502 -42.1446 -0.0000 0.0000 0.0000
-0.4007 -7.1226 -0.0347 124.6189 -22.1171 73.1879 -0.0000 0.0000 0.0000 -0.0000 0.0000 0.0000 41.4397 16.9510 -6.4523 -0.0000 0.0000 0.0000 99.8288 -16.5195 -13.9317 -14.1136 -2.2793 18.2591 -0.0000 0.0000 0.0000 -82.5324 -18.7453 21.3064 -8.8497 2.5927 -32.6020 -0.0000 0.0000 0.0000 165.6429 -51.7032 150.8579 160.2714 50.4998 -139.5230 -0.0000 0.0000 0.0000 -151.7600 -50.6760 -124.0407 149.1109 6.3209 -22.6040 -0.0000 0.0000 0.0000
-0.4354 -7.1426 -0.0160 126.2500 -32.4854 71.2930 -0.0000 0.0000 0.0000 -0.0000 0.0000 0.0000 40.2653 18.6119 -6.8754 -0.0000 0.0000 0.0000 102.0397 -19.9216 -16.1768 -8.0786 -1.2259 17.2298 -0.0000 0.0000 0.0000 -77.0054 -20.7746 25.9517 -3.1249 0.9394 -33.4548 -0.0000 0.0000 0.0000 -174.9698 -48.8194 -168.9432 141.1355 33.7921 -81.4564 -0.0000 0.0000 0.0000 -144.3600 -51.0217 -112.0712 139.5084 16.4305 -42.7539 -0.0000 0.0000 0.0000
-0.4652 -7.1637 -0.0071 127.5864 -37.4251 70.4675 -0.0000 0.0000 0.0000 -0.0000 0.0000 0.0000 38.5640 18.5868 -6.5529 -0.0000 0.0000 0.0000 100.9139 -20.8867 -17.3048 -6.3110 -0.9205 16.5814 -0.0000 0.0000 0.0000 -70.6844 -22.2867 31.0472 -1.3421 0.3833 -31.8744 -0.0000 0.0000 0.0000 -174.6559 -49.0818 -168.3276 134.9032 32.0510 -69.3490 -0.0000 0.0000 0.0000 -140.6357 -49.1711 -103.9629 137.0576 58.2466 -109.5559 -0.0000 0.0000 0.0000
-0.4797 -7.1836 -0.0098 128.0206 -36.4832 71.2743 -0.0000 0.0000 0.0000 -0.0000 0.0000 0.0000 38.7217 19.7001 -6.9827 -0.0000 0.0000 0.0000 98.5764 -19.2432 -16.5990 -7.5207 -0.9711 14.6941 -0.0000 0.0000 0.0000 -65.3402 -23.2389 35.5580 -6.4404 1.7122 -29.7481 -0.0000 0.0000 0.0000 178.1740 -50.1410 176.0978 133.5439 40.9826 -82.0959 -0.0000 0.0000 0.0000 -140.5032 -48.4878 -102.8770 123.8450 73.9488 -109.3599 -0.0000 0.0000 0.0000
-0.4698 -7.1740 -0.0109 127.6596 -35.8015 71.2006 -0.0000 0.0000 0.0000 -0.0000 0.0000 0.0000 39.0181 19.2943 -6.8929 -0.0000 0.0000 0.0000 99.3626 -19.5213 -16.6110 -7.5954 -1.0253 15.3540 -0.0000 0.0000 0.0000 -67.9170 -22.8887 33.4616 -5.4333 1.4913 -30.6758 -0.0000 0.0000 0.0000 179.5908 -49.8562 179.1195 135.1136 39.2500 -81.6061 -0.0000 0.0000 0.0000 -141.5076 -48.7387 -104.7519 139.5647 57.8026 -112.5857 -0.0000 0.0000 0.0000
-0.4698 -7.1740 -0.0109 127.6596 -35.8015 71.2006 -0.0000 0.0000 0.0000 -0.0000 0.0000 0.0000 39.0181 19.2943 -6.8929 -0.0000 0.0000 0.0000 99.3626 -19.5213 -16.6110 -7.5954 -1.0253 15.3540 -0.0000 0.0000 0.0000 -67.9170 -22.8887 33.4616 -5.4333 1.4913 -30.6758 -0.0000 0.0000 0.0000 179.5908 -49.8562 179.1195 135.1136 39.2500 -81.6061 -0.0000 0.0000 0.0000 -141.5076 -48.7387 -104.7519 139.5647 57.8026 -112.5857 -0.0000 0.0000 0.0000
-0.4698 -7.1740 -0.0109 127.6596 -35.8015 71.2006 -0.0000 0.0000 0.0000 -0.0000 0.0000 0.0000 39.0181 19.2943 -6.8929 -0.0000 0.0000 0.0000 99.3626 -19.5213 -16.6110 -7.5954 -1.0253 15.3540 -0.0000 0.0000 0.0000 -67.9170 -22.8887 33.4616 -5.4333 1.4913 -30.6758 -0.0000 0.0000 0.0000 179.5908 -49.8562 179.1195 135.1136 39.2500 -81.6061 -0.0000 0.0000 0.0000 -141.5076 -48.7387 -104.7519 139.5647 57.8026 -112.5857 -0.0000 0.0000 0.0000
-0.4698 -7.1740 -0.0109 127.6596 -35.8015 71.2006 -0.0000 0.0000 0.0000 -0.0000 0.0000 0.0000 39.0181 19.2943 -6.8929 -0.0000 0.0000 0.0000 99.3626 -19.5213 -16.6110 -7.5954 -1.0253 15.3540 -0.0000 0.0000 0.0000 -67.9170 -22.8887 33.4616 -5.4333 1.4913 -30.6758 -0.0000 0.0000 0.0000 179.5908 -49.8562 179.1195 135.1136 39.2500 -81.6061 -0.0000 0.0000 0.0000 -141.5076 -48.7387 -104.7519 139.5647 57.8026 -112.5857 -0.0000 0.0000 0.0000
-0.4698 -7.1740 -0.0109 127.6596 -35.8015 71.2006 -0.0000 0.0000 0.0000 -0.0000 0.0000 0.0000 39.0181 19.2943 -6.8929 -0.0000 0.0000 0.0000 99.3626 -19.5213 -16.6110 -7.5954 -1.0253 15.3540 -0.0000 0.0000 0.0000 -67.9170 -22.8887 33.4616 -5.4333 1.4913 -30.6758 -0.0000 0.0000 0.0000 179.5908 -49.8562 179.1195 135.1136 39.2500 -81.6061 -0.0000 0.0000 0.0000 -141.5076 -48.7387 -104.7519 139.5647 57.8026 -112.5857 -0.0000 0.0000 0.0000
-0.4886 -7.1734 -0.0115 126.4497 -35.8285 73.4483 -0.0000 0.0000 0.0000 -0.0000 0.0000 0.0000 36.3142 17.2345 -5.6904 -0.0000 0.0000 0.0000 100.0413 -19.2625 -16.1965 -10.7693 -1.4916 15.7262 -0.0000 0.0000 0.0000 -66.1726 -22.0874 33.3512 -8.2593 2.1064 -28.5702 -0.0000 0.0000 0.0000 -178.8553 -48.9332 -177.4847 130.0585 40.8768 -77.3362 -0.0000 0.0000 0.0000 -139.6448 -45.7060 -97.8263 99.8919 67.7420 -77.2090 -0.0000 0.0000 0.0000
-0.4644 -7.1828 -0.0088 128.4180 -38.3620 69.5812 -0.0000 0.0000 0.0000 -0.0000 0.0000 0.0000 37.3133 20.3237 -6.9265 -0.0000 0.0000 0.0000 99.6348 -19.2682 -16.3168 -3.6607 -0.3474 10.8376 -0.0000 0.0000 0.0000 -66.4042 -22.6794 34.0737 -3.5600 0.8553 -27.0113 -0.0000 0.0000 0.0000 -178.1101 -49.2810 -175.8812 136.1147 35.2542 -76.5259 -0.0000 0.0000 0.0000 -138.4021 -49.4151 -100.9171 149.6816 57.3752 -127.3185 -0.0000 0.0000 0.0000
-0.4040 -7.1723 -0.0056 132.1196 -34.3192 63.2154 -0.0000 0.0000 0.0000 -0.0000 0.0000 0.0000 51.1260 27.8740 -13.5388 -0.0000 0.0000 0.0000 98.1413 -19.1304 -16.6266 8.2505 0.7019 9.7092 -0.0000 0.0000 0.0000 -77.9740 -23.7572 29.1348 11.3553 -4.1359 -39.9215 -0.0000 0.0000 0.0000 171.4520 -52.8558 162.8974 151.3882 34.1699 -100.6358 -0.0000 0.0000 0.0000 -154.6761 -59.6135 -137.1723 163.2151 23.2122 -108.6180 -0.0000 0.0000 0.0000
-0.3243 -7.1481 -0.0144 135.9399 -24.4511 54.9506 -0.0000 0.0000 0.0000 -0.0000 0.0000 0.0000 63.9118 35.3770 -22.5033 -0.0000 0.0000 0.0000 100.6144 -20.1098 -16.7444 79.1990 14.0622 16.9595 -0.0000 0.0000 0.0000 -99.8434 -12.2946 10.3567 89.4545 -25.2738 -25.5077 -0.0000 0.0000 0.0000 144.6313 -57.9971 120.1818 168.7179 34.3069 -144.5099 -0.0000 0.0000 0.0000 163.6468 -65.0522 154.6049 158.1025 20.4669 -86.0425 -0.0000 0.0000 0.0000
-0.2497 -7.1185 -0.0301 138.7222 -11.0732 46.8716 -0.0000 0.0000 0.0000 -0.0000 0.0000 0.0000 60.7153 39.6141 -23.8236 -0.0000 0.0000 0.0000 116.8676 -46.9032 -29.8480 104.8630 70.3660 56.9410 -0.0000 0.0000 0.0000 -88.4456 28.0788 -28.8193 60.9719 58.8834 87.5871 -0.0000 0.0000 0.0000 99.9814 -60.7516 69.8526 -177.5003 37.2867 172.5999 -0.0000 0.0000 0.0000 124.7912 -59.6800 95.2996 163.3370 36.4655 -132.0638 -0.0000 0.0000 0.0000
-0.2043 -7.0920 -0.0479 139.4960 0.6264 42.3622 -0.0000 0.0000 0.0000 -0.0000 0.0000 0.0000 49.1576 38.2912 -18.0456 -0.0000 0.0000 0.0000 0.2467 -1.0751 -154.1565 67.5781 -64.3919 -86.5134 -0.0000 0.0000 0.0000 -39.0093 25.4991 -65.1406 2.1972 6.1152 140.5040 -0.0000 0.0000 0.0000 58.0711 -58.8538 34.7746 -168.8569 45.8742 154.0384 -0.0000 0.0000 0.0000 107.4436 -55.2268 70.9521 176.7872 48.1153 -172.8109 -0.0000 0.0000 0.0000
-0.2124 -7.0772 -0.0627 137.4817 5.4964 45.1698 -0.0000 0.0000 0.0000 -0.0000 0.0000 0.0000 43.7430 32.4866 -13.3411 -0.0000 0.0000 0.0000 3.2705 -10.3221 -144.9192 19.5880 -47.4850 -137.1446 -0.0000 0.0000 0.0000 -42.1612 29.8617 -69.3473 7.2084 21.3550 143.0537 -0.0000 0.0000 0.0000 40.6672 -58.2763 23.3445 -171.3454 57.5456 164.3084 -0.0000 0.0000 0.0000 109.8476 -55.5141 73.7020 -179.3682 52.3845 178.7156 -0.0000 0.0000 0.0000
-0.2138 -7.0850 -0.0667 137.4979 2.0760 44.6780 -0.0000 0.0000 0.0000 -0.0000 0.0000 0.0000 47.3377 34.4287 -15.4673 -0.0000 0.0000 0.0000 1.8413 -5.8437 -145.0482 13.5472 -41.1950 -144.9228 -0.0000 0.0000 0.0000 -53.0548 32.7491 -60.9650 10.7981 33.0936 144.7072 -0.0000 0.0000 0.0000 38.0887 -56.9374 21.2040 -175.1035 57.7706 171.1369 -0.0000 0.0000 0.0000 111.7019 -56.1761 76.3909 177.6602 47.8058 -174.7238 -0.0000 0.0000 0.0000
-0.2168 -7.0764 -0.0529 135.2753 5.1957 45.4959 -0.0000 0.0000 0.0000 -0.0000 0.0000 0.0000 43.6327 33.2718 -13.6413 -0.0000 0.0000 0.0000 10.2489 -28.1603 -140.6513 100.0645 -63.3144 -54.6582 -0.0000 0.0000 0.0000 -31.6087 26.4039 -79.3013 4.3802 15.7034 149.0005 -0.0000 0.0000 0.0000 50.2510 -60.1004 30.3592 -172.7193 54.8162 166.0100 -0.0000 0.0000 0.0000 113.9786 -51.7888 73.5362 -177.7973 50.0289 175.2816 -0.0000 0.0000 0.0000
-0.2148 -7.0900 -0.0679 138.8452 0.4124 44.5263 -0.0000 0.0000 0.0000 -0.0000 0.0000 0.0000 49.2850 34.9991 -16.4597 -0.0000 0.0000 0.0000 0.4221 -1.4040 -146.5316 9.7128 -35.1024 -149.9268 -0.0000 0.0000 0.0000 -61.0754 33.0486 -53.3954 13.9486 37.0064 139.8416 -0.0000 0.0000 0.0000 39.1319 -56.4961 21.6216 -173.6404 56.2652 168.1361 -0.0000 0.0000 0.0000 110.2366 -58.1561 77.1573 175.1774 47.5120 -169.0698 -0.0000 0.0000 0.0000
-0.2106 -7.1173 -0.0978 146.6465 -9.9503 43.4001 -0.0000 0.0000 0.0000 -0.0000 0.0000 0.0000 59.8593 34.6656 -20.3721 -0.0000 0.0000 0.0000 -21.9022 49.3995 -134.3677 -162.6886 40.0515 -6.3516 -0.0000 0.0000 0.0000 -90.9632 14.6787 -14.4366 46.2848 49.7130 94.6100 -0.0000 0.0000 0.0000 25.4965 -44.8286 10.6625 -169.3455 60.4078 161.7983 -0.0000 0.0000 0.0000 88.5540 -68.5311 67.1915 169.0618 44.2819 -153.5174 -0.0000 0.0000 0.0000
-0.2064 -7.1452 -0.1325 156.7763 -22.4654 42.4812 -0.0000 0.0000 0.0000 -0.0000 0.0000 0.0000 62.4934 25.0055 -15.3252 -0.0000 0.0000 0.0000 -144.1158 20.2153 -6.6072 26.8064 54.7959 130.6186 -0.0000 0.0000 0.0000 -90.6782 -7.6199 7.5305 27.3233 9.1528 36.4542 -0.0000 0.0000 0.0000 16.0141 -26.4636 3.7888 -128.3208 72.0786 112.7059 -0.0000 0.0000 0.0000 38.1546 -69.3340 26.9020 169.8608 46.4469 -156.6374 -0.0000 0.0000 0.0000
-0.2014 -7.1783 -0.1628 165.5364 -30.7359 47.2810 -0.0000 0.0000 0.0000 -0.0000 0.0000 0.0000 48.1447 7.8663 -3.5186 -0.0000 0.0000 0.0000 0.6205 -11.1856 -173.6699 -94.3414 75.5852 -71.4196 -0.0000 0.0000 0.0000 -83.3983 -22.5548 25.2319 6.2151 0.9140 16.7159 -0.0000 0.0000 0.0000 15.9256 -16.4392 2.3151 -110.3065 64.7094 84.5991 -0.0000 0.0000 0.0000 20.2884 -60.8599 11.9994 172.1347 49.8476 -163.1696 -0.0000 0.0000 0.0000
-0.2025 -7.2051 -0.1827 167.9465 -34.7507 54.0624 -0.0000 0.0000 0.0000 -0.0000 0.0000 0.0000 34.4659 -0.7593 0.2355 -0.0000 0.0000 0.0000 86.0205 -33.1994 -35.4442 -163.9789 11.3714 -1.6055 -0.0000 0.0000 0.0000 -72.9514 -27.9373 37.1921 -0.0990 -0.0121 13.9828 -0.0000 0.0000 0.0000 30.3526 -22.9260 6.2966 -153.4033 53.2445 129.5084 -0.0000 0.0000 0.0000 20.8093 -57.1019 11.4107 172.2188 47.0651 -162.2482 -0.0000 0.0000 0.0000
-0.1961 -7.2084 -0.1718 165.9704 -29.3534 55.3689 -0.0000 0.0000 0.0000 -0.0000 0.0000 0.0000 44.2241 4.9942 -2.0302 -0.0000 0.0000 0.0000 77.4331 -37.6264 -46.0503 -136.5570 26.1753 -10.5829 -0.0000 0.0000 0.0000 -76.0572 -29.9820 37.8015 4.4729 0.6313 16.0602 -0.0000 0.0000 0.0000 25.9715 -26.3999 6.1920 -169.0102 39.0675 149.6580 -0.0000 0.0000 0.0000 34.2371 -61.8460 20.9069 164.2321 44.0609 -142.2164 -0.0000 0.0000 0.0000
-0.1784 -7.2111 -0.1535 168.5926 -22.3538 53.4711 -0.0000 0.0000 0.0000 -0.0000 0.0000 0.0000 50.3303 13.7590 -6.4886 -0.0000 0.0000 0.0000 79.1889 -38.0215 -45.2290 27.7924 11.8537 45.5271 -0.0000 0.0000 0.0000 -74.5447 -38.9859 49.8892 14.1079 2.3921 19.1537 -0.0000 0.0000 0.0000 0.0117 -11.2398 0.0012 -161.4851 31.4237 119.8232 -0.0000 0.0000 0.0000 47.0939 -56.7437 26.4873 152.9241 57.2654 -132.4029 -0.0000 0.0000 0.0000
-0.1544 -7.2118 -0.1280 172.0880 -10.4627 41.9271 -0.0000 0.0000 0.0000 -0.0000 0.0000 0.0000 51.2677 27.6070 -13.4474 -0.0000 0.0000 0.0000 83.1898 -44.6018 -49.5980 67.1160 24.1195 35.7051 -0.0000 0.0000 0.0000 -90.4332 -48.5372 48.2134 60.9227 21.3069 35.4728 -0.0000 0.0000 0.0000 -30.1015 -4.8940 -1.3167 -132.9173 30.0258 63.2313 -0.0000 0.0000 0.0000 47.2072 -44.7987 20.4188 -179.2601 67.9594 178.9023 -0.0000 0.0000 0.0000
-0.1254 -7.2008 -0.0999 176.0142 6.1685 13.0969 -0.0000 0.0000 0.0000 -0.0000 0.0000 0.0000 32.4229 46.3170 -14.1782 -0.0000 0.0000 0.0000 62.2678 -52.4072 -78.3421 71.3670 -11.9817 -16.6278 -0.0000 0.0000 0.0000 -81.2483 -37.2759 42.9265 146.1483 24.3772 7.5215 -0.0000 0.0000 0.0000 -50.8666 -22.1822 -10.6517 -42.6513 15.8029 6.2028 -0.0000 0.0000 0.0000 31.6890 -36.1800 10.5934 -139.4143 58.7209 113.3665 -0.0000 0.0000 0.0000
-0.0983 -7.2005 -0.0759 178.9097 22.5972 -8.8387 -0.0000 0.0000 0.0000 -0.0000 0.0000 0.0000 6.2502 45.4542 -2.6202 -0.0000 0.0000 0.0000 59.8911 -43.9967 -70.0820 42.9562 -12.7792 -31.7735 -0.0000 0.0000 0.0000 -41.6237 -19.1535 47.8711 55.8582 -10.1910 -19.0959 -0.0000 0.0000 0.0000 -60.8805 -41.3358 -24.9978 -18.7352 30.9642 5.2325 -0.0000 0.0000 0.0000 -19.3170 -40.3490 -7.1562 178.3405 75.2746 -177.8481 -0.0000 0.0000 0.0000
-0.0902 -7.1900 -0.0758 177.7773 28.4795 -10.9528 -0.0000 0.0000 0.0000 -0.0000 0.0000 0.0000 4.0938 42.7643 -1.6035 -0.0000 0.0000 0.0000 55.6278 -42.0672 -72.1774 35.3978 -10.9880 -33.5460 -0.0000 0.0000 0.0000 -51.6576 -17.4916 35.2631 56.9326 -2.3502 -4.3332 -0.0000 0.0000 0.0000 -57.2293 -47.5010 -26.9973 -47.9666 65.5067 31.9415 -0.0000 0.0000 0.0000 -42.9339 -34.9617 -14.1197 142.9565 78.3815 -135.3238 -0.0000 0.0000 0.0000
-0.0896 -7.1686 -0.0813 176.1449 29.0823 -8.8849 -0.0000 0.0000 0.0000 -0.0000 0.0000 0.0000 7.5899 44.4186 -3.1026 -0.0000 0.0000 0.0000 48.1657 -42.4433 -81.9665 28.6104 -7.2510 -27.9087 -0.0000 0.0000 0.0000 -51.6482 -14.9232 30.2870 54.3975 1.6060 3.1245 -0.0000 0.0000 0.0000 -53.4908 -51.4556 -27.2980 -81.9762 69.0181 61.7078 -0.0000 0.0000 0.0000 -51.1520 -33.0122 -16.1442 142.4463 75.4976 -132.5870 -0.0000 0.0000 0.0000
-0.0910 -7.1480 -0.0994 174.4613 22.4834 -4.9628 -0.0000 0.0000 0.0000 -0.0000 0.0000 0.0000 12.1944 49.9660 -5.6988 -0.0000 0.0000 0.0000 32.2663 -39.7051 -102.6002 26.9342 -9.5184 -38.3413 -0.0000 0.0000 0.0000 -49.7959 -19.1747 39.9949 77.8339 13.9929 17.2855 -0.0000 0.0000 0.0000 -44.7832 -53.2496 -23.3392 -104.6475 60.4167 74.0280 -0.0000 0.0000 0.0000 -47.5681 -35.6010 -16.1082 163.2606 66.4876 -154.6984 -0.0000 0.0000 0.0000
-0.0915 -7.1386 -0.1258 173.2355 18.8446 -2.5901 -0.0000 0.0000 0.0000 -0.0000 0.0000 0.0000 15.2010 53.3419 -7.6693 -0.0000 0.0000 0.0000 25.6328 -36.7220 -111.1440 25.6191 -10.6858 -44.7168 -0.0000 0.0000 0.0000 -38.0275 -19.6212 53.2956 102.0430 35.1235 28.7280 -0.0000 0.0000 0.0000 -36.9483 -58.6980 -21.2792 -112.3396 48.2391 67.4898 -0.0000 0.0000 0.0000 -45.9416 -46.0184 -20.4084 -175.1736 59.8849 171.6309 -0.0000 0.0000 0.0000
-0.0858 -7.1340 -0.1439 173.1303 21.2151 -3.9028 -0.0000 0.0000 0.0000 -0.0000 0.0000 0.0000 12.5881 54.0641 -6.4420 -0.0000 0.0000 0.0000 24.1993 -36.2043 -113.4865 26.6196 -11.0385 -44.4354 -0.0000 0.0000 0.0000 -25.1559 -16.3518 65.5565 129.2666 17.4723 8.3341 -0.0000 0.0000 0.0000 -43.0826 -61.6130 -26.4898 -110.1989 49.3869 66.7784 -0.0000 0.0000 0.0000 -64.0714 -47.5068 -30.7925 168.8262 58.5119 -160.1888 -0.0000 0.0000 0.0000
-0.0743 -7.1401 -0.1569 174.2459 29.2933 -8.0244 -0.0000 0.0000 0.0000 -0.0000 0.0000 0.0000 4.5808 50.1028 -2.1420 -0.0000 0.0000 0.0000 31.8721 -39.9979 -103.7677 23.6627 -13.2187 -57.8962 -0.0000 0.0000 0.0000 -14.8006 -10.4613 70.3557 59.5292 -27.7542 -46.7281 -0.0000 0.0000 0.0000 -57.7059 -63.4716 -37.6336 -100.3103 56.6766 65.7465 -0.0000 0.0000 0.0000 -77.8242 -38.9957 -31.9028 137.3936 54.1096 -105.2757 -0.0000 0.0000 0.0000
-0.0732 -7.1337 -0.1722 174.1221 36.3638 -10.8214 -0.0000 0.0000 0.0000 -0.0000 0.0000 0.0000 -0.1664 43.6557 0.0666 -0.0000 0.0000 0.0000 31.8987 -39.5237 -102.9976 2.4812 -2.2648 -84.7770 -0.0000 0.0000 0.0000 -3.3288 -2.6022 76.0258 22.7055 -12.2801 -56.3646 -0.0000 0.0000 0.0000 -72.9952 -68.6506 -53.6060 -94.1358 59.0168 62.6300 -0.0000 0.0000 0.0000 -84.7807 -37.3991 -34.3384 126.2573 47.1903 -81.5243 -0.0000 0.0000 0.0000
-0.0742 -7.1322 -0.1589 172.6295 45.5673 -10.2492 -0.0000 0.0000 0.0000 -0.0000 0.0000 0.0000 -0.6123 35.0996 0.1937 -0.0000 0.0000 0.0000 24.8741 -31.4451 -103.8482 -67.5465 53.8995 -74.4870 -0.0000 0.0000 0.0000 4.6850 3.8992 79.5299 23.6982 -9.9583 -45.1016 -0.0000 0.0000 0.0000 -80.3340 -71.6123 -62.6750 -106.7193 64.2663 80.3623 -0.0000 0.0000 0.0000 -80.9105 -37.7521 -32.5088 130.0139 38.4873 -73.6565 -0.0000 0.0000 0.0000
-0.0719 -7.1422 -0.1430 171.0068 52.6259 -8.2167 -0.0000 0.0000 0.0000 -0.0000 0.0000 0.0000 0.0376 29.5040 -0.0099 -0.0000 0.0000 0.0000 8.3163 -8.5893 -91.8570 -124.2259 2.0376 -1.0784 -0.0000 0.0000 0.0000 13.1443 10.7884 78.6756 15.7035 -3.8641 -27.4909 -0.0000 0.0000 0.0000 -58.3523 -78.3407 -48.9202 -115.8637 55.9134 80.5371 -0.0000 0.0000 0.0000 -68.6362 -40.0887 -27.9701 134.4623 34.7154 -73.3508 -0.0000 0.0000 0.0000
-0.0680 -7.1550 -0.1218 168.7790 60.4269 -5.2121 -0.0000 0.0000 0.0000 -0.0000 0.0000 0.0000 0.7182 23.7338 -0.1509 -0.0000 0.0000 0.0000 1.3606 -0.8027 -61.0778 -99.1880 -6.7210 5.7230 -0.0000 0.0000 0.0000 8.8867 7.5877 80.9518 23.7656 -3.2429 -15.3239 -0.0000 0.0000 0.0000 22.0865 -73.5837 16.6083 -112.2222 35.9474 51.5591 -0.0000 0.0000 0.0000 -10.6483 -38.0976 -3.6860 179.6056 52.2762 -179.1963 -0.0000 0.0000 0.0000
-0.0638 -7.1660 -0.0988 167.1725 65.1910 -3.4804 -0.0000 0.0000 0.0000 -0.0000 0.0000 0.0000 1.0352 20.4584 -0.1868 -0.0000 0.0000 0.0000 1.9254 -0.8919 -49.7084 -87.6072 -4.1132 4.2886 -0.0000 0.0000 0.0000 5.1392 4.5314 82.7987 28.0025 -2.3315 -9.3307 -0.0000 0.0000 0.0000 26.6497 -57.0931 14.6839 -103.7277 24.5162 30.9372 -0.0000 0.0000 0.0000 27.6756 -15.2598 3.7798 -115.9882 -5.0773 -8.1153 -0.0000 0.0000 0.0000
-0.0848 -7.1925 -0.0907 164.7966 61.0701 -1.4466 -0.0000 0.0000 0.0000 -0.0000 0.0000 0.0000 0.3467 21.7394 -0.0666 -0.0000 0.0000 0.0000 9.4689 -3.5918 -41.4720 -83.0892 0.1027 -0.1158 -0.0000 0.0000 0.0000 5.8900 5.2137 83.0174 30.2090 -1.3319 -4.9320 -0.0000 0.0000 0.0000 19.6104 -47.1613 8.6279 -86.5010 23.7198 22.3503 -0.0000 0.0000 0.0000 34.7765 -11.0562 3.4720 -93.2842 -9.7541 -10.3269 -0.0000 0.0000 0.0000
-0.0490 -7.1653 -0.1100 168.5263 69.0688 -5.5831 -0.0000 0.0000 0.0000 -0.0000 0.0000 0.0000 0.8371 18.0537 -0.1330 -0.0000 0.0000 0.0000 3.9452 -1.4379 -40.0368 -107.3424 -5.6865 4.1831 -0.0000 0.0000 0.0000 0.5338 0.4976 85.9754 30.3688 -2.3271 -8.5595 -0.0000 0.0000 0.0000 22.0215 -56.7827 12.0073 -107.2523 27.1772 36.3363 -0.0000 0.0000 0.0000 33.1426 -11.2897 3.3694 -118.3942 -11.4045 -19.0159 -0.0000 0.0000 0.0000
0.0310 -7.0879 -0.0835 -57.0324 82.8602 -148.0621 -0.0000 0.0000 0.0000 -0.0000 0.0000 0.0000 0.8987 1.0653 -0.0084 -0.0000 0.0000 0.0000 -55.1721 26.1704 -47.9657 21.2063 30.3796 110.8274 -0.0000 0.0000 0.0000 -35.6899 -28.9741 77.4999 114.9487 -1.2144 -0.7744 -0.0000 0.0000 0.0000 57.8097 25.0527 -13.9874 -167.7425 -26.8182 -131.5059 -0.0000 0.0000 0.0000 -13.2925 38.4966 4.6599 -178.3296 -32.0866 -174.1957 -0.0000 0.0000 0.0000
0.1241 -6.9829 -0.0391 -27.2144 39.1026 151.4355 -0.0000 0.0000 0.0000 -0.0000 0.0000 0.0000 30.4960 -26.7815 7.4259 -0.0000 0.0000 0.0000 8.9238 -28.5251 -145.8700 -87.0375 -71.2508 74.0797 -0.0000 0.0000 0.0000 -15.2054 0.0521 -0.3902 118.4767 67.9431 43.7062 -0.0000 0.0000 0.0000 -8.7029 47.9830 3.8792 169.9640 -1.4563 16.4716 -0.0000 0.0000 0.0000 -48.0108 -11.8456 -5.2905 124.7508 8.5483 -16.2548 -0.0000 0.0000 0.0000
0.2021 -6.8810 -0.0078 -25.2562 6.1080 132.7398 -0.0000 0.0000 0.0000 -0.0000 0.0000 0.0000 24.9746 -7.7109 1.7101 -0.0000 0.0000 0.0000 122.7985 -0.3471 -0.1893 -29.6176 56.6668 -127.7613 -0.0000 0.0000 0.0000 48.8310 7.6951 16.8545 34.9495 11.8320 36.4383 -0.0000 0.0000 0.0000 -0.6786 23.2435 0.1396 172.7623 27.8286 -151.3579 -0.0000 0.0000 0.0000 -31.6325 -33.4951 -9.7447 33.7667 32.5493 -10.1270 -0.0000 0.0000 0.0000
0.2418 -6.8247 -0.0015 -25.2521 -7.5036 130.3698 -0.0000 0.0000 0.0000 -0.0000 0.0000 0.0000 8.5927 1.1224 -0.0843 -0.0000 0.0000 0.0000 112.9577 10.3671 6.8779 -13.1894 33.6091 -138.1053 -0.0000 0.0000 0.0000 54.4996 15.8924 30.3280 21.2196 2.7557 14.6336 -0.0000 0.0000 0.0000 8.7516 16.2307 -1.2503 -178.6312 47.0394 176.8556 -0.0000 0.0000 0.0000 -26.0196 -36.9624 -8.8316 24.2235 26.2672 -5.7329 -0.0000 0.0000 0.0000
0.2112 -6.8421 -0.0071 -26.3755 -9.0658 138.2690 -0.0000 0.0000 0.0000 -0.0000 0.0000 0.0000 7.0863 -2.1827 0.1352 -0.0000 0.0000 0.0000 56.4582 33.2629 58.1844 -2.8378 13.6245 -156.5717 -0.0000 0.0000 0.0000 54.4997 16.0766 30.6675 11.3815 1.0179 10.1876 -0.0000 0.0000 0.0000 15.3301 13.1893 -1.7828 -176.3099 34.7625 168.2487 -0.0000 0.0000 0.0000 -30.7497 -32.7682 -9.2442 29.1745 23.0625 -6.0785 -0.0000 0.0000 0.0000
0.2092 -6.8412 -0.0599 -26.6418 -12.2751 135.6302 -0.0000 0.0000 0.0000 -0.0000 0.0000 0.0000 13.7049 -3.5896 0.4315 -0.0000 0.0000 0.0000 -30.8815 -16.7107 56.0023 -21.0589 40.8555 -126.9568 -0.0000 0.0000 0.0000 49.2882 16.3385 34.7512 17.2445 1.2305 8.1017 -0.0000 0.0000 0.0000 9.3549 0.0483 -0.0040 -165.7546 21.9188 114.3319 -0.0000 0.0000 0.0000 -26.2492 -33.6202 -8.0585 28.6828 21.9620 -5.6801 -0.0000 0.0000 0.0000
0.2038 -6.8368 -0.0794 -27.5066 -9.8317 131.9622 -0.0000 0.0000 0.0000 -0.0000 0.0000 0.0000 24.8040 1.4456 -0.3179 -0.0000 0.0000 0.0000 -47.1939 -14.9151 33.3626 -26.1343 22.4936 -81.1765 -0.0000 0.0000 0.0000 37.5435 11.4087 32.7562 50.2617 2.3474 5.0017 -0.0000 0.0000 0.0000 0.7309 -8.4213 0.0538 -54.3962 -12.6997 -6.5460 -0.0000 0.0000 0.0000 -27.0841 -34.3616 -8.5178 32.6382 23.9022 -7.0924 -0.0000 0.0000 0.0000
0.2234 -6.8026 -0.0909 -28.1779 -13.2157 119.0380 -0.0000 0.0000 0.0000 -0.0000 0.0000 0.0000 34.2342 9.0270 -2.7852 -0.0000 0.0000 0.0000 -56.0682 -24.7872 44.8510 -12.8036 24.3106 -124.9690 -0.0000 0.0000 0.0000 23.6256 11.5132 51.4699 97.9102 -43.4880 -38.2995 -0.0000 0.0000 0.0000 -1.5053 -20.7511 -0.2756 4.5003 -7.1197 0.2801 -0.0000 0.0000 0.0000 -26.9950 -42.2354 -10.5931 45.2390 33.2367 -14.1775 -0.0000 0.0000 0.0000
0.2414 -6.7603 -0.1047 -29.7887 -18.5113 100.7803 -0.0000 0.0000 0.0000 -0.0000 0.0000 0.0000 35.3241 20.4423 -6.5718 -0.0000 0.0000 0.0000 -62.5020 -37.5363 58.4944 2.2517 -10.4905 -155.8339 -0.0000 0.0000 0.0000 -19.3381 -11.7642 62.3213 -15.8761 29.0589 -123.4371 -0.0000 0.0000 0.0000 7.6977 -33.7622 2.3392 22.8160 13.0778 -2.6499 -0.0000 0.0000 0.0000 -22.5658 -54.1773 -11.6531 52.0895 41.2620 -20.8507 -0.0000 0.0000 0.0000
0.2648 -6.7228 -0.1120 -32.3486 -18.0378 86.9601 -0.0000 0.0000 0.0000 -0.0000 0.0000 0.0000 30.9115 23.5279 -6.5910 -0.0000 0.0000 0.0000 134.1416 -28.3156 -12.1818 -1.8975 -9.0782 156.4344 -0.0000 0.0000 0.0000 -56.9317 -23.9059 42.6568 -4.6763 3.9896 -80.9304 -0.0000 0.0000 0.0000 14.4370 -37.4714 4.9197 68.2838 42.8509 -29.8021 -0.0000 0.0000 0.0000 -16.1260 -62.6128 -9.8482 47.7228 46.0130 -21.2746 -0.0000 0.0000 0.0000
0.2830 -6.7319 -0.0974 -35.9567 -11.9814 76.9366 -0.0000 0.0000 0.0000 -0.0000 0.0000 0.0000 34.4099 21.9388 -6.8693 -0.0000 0.0000 0.0000 88.2599 -54.0862 -55.5082 44.5838 35.8935 76.6210 -0.0000 0.0000 0.0000 -93.7219 -16.3996 15.3802 34.3481 -33.6669 -88.7821 -0.0000 0.0000 0.0000 19.2273 -37.6961 6.6184 123.6720 55.9147 -89.5022 -0.0000 0.0000 0.0000 -29.2110 -76.6494 -23.2778 52.1331 56.2731 -29.3195 -0.0000 0.0000 0.0000
0.2918 -6.7805 -0.0944 -40.6044 -12.3143 67.3816 -0.0000 0.0000 0.0000 -0.0000 0.0000 0.0000 39.2020 23.6011 -8.5096 -0.0000 0.0000 0.0000 68.7993 -43.8634 -60.9152 93.6670 24.3822 22.9109 -0.0000 0.0000 0.0000 -89.9830 17.2606 -17.2657 148.5410 -54.7113 -16.5808 -0.0000 0.0000 0.0000 29.4440 -36.4984 9.9035 158.6011 50.2491 -136.1112 -0.0000 0.0000 0.0000 -15.2991 -84.7154 -13.9633 42.8318 55.5015 -23.3200 -0.0000 0.0000 0.0000
0.2641 -6.8106 -0.1180 -41.0526 -17.0174 72.6781 -0.0000 0.0000 0.0000 -0.0000 0.0000 0.0000 45.1468 26.1161 -11.0148 -0.0000 0.0000 0.0000 77.3912 -55.3709 -66.4513 160.1943 -20.1480 -3.5530 -0.0000 0.0000 0.0000 -24.2146 28.8616 -100.3696 6.9303 -43.0079 -162.5251 -0.0000 0.0000 0.0000 27.1864 -32.4793 8.0575 159.0283 39.4366 -125.3766 -0.0000 0.0000 0.0000 -5.9445 -79.2745 -4.9256 32.8100 47.0700 -14.6140 -0.0000 0.0000 0.0000
0.2728 -6.8239 -0.1475 -41.0221 -25.8990 70.2536 -0.0000 0.0000 0.0000 -0.0000 0.0000 0.0000 53.6313 33.2817 -17.1828 -0.0000 0.0000 0.0000 32.1150 -37.6336 -99.6252 -158.7827 33.4415 -6.4409 -0.0000 0.0000 0.0000 49.6232 -42.5583 -80.2236 126.4324 29.7396 15.2674 -0.0000 0.0000 0.0000 38.0455 -23.3351 8.1446 158.2723 35.3496 -117.8817 -0.0000 0.0000 0.0000 -11.8996 -77.7092 -9.5983 44.0351 44.2979 -18.6947 -0.0000 0.0000 0.0000
0.2819 -6.8285 -0.1768 -38.3800 -38.3901 71.5469 -0.0000 0.0000 0.0000 -0.0000 0.0000 0.0000 31.8395 40.9749 -12.1663 -0.0000 0.0000 0.0000 4.3623 -5.0909 -98.8246 -98.8532 -59.0880 51.7782 -0.0000 0.0000 0.0000 35.8994 -42.5146 -100.4302 133.4516 4.6004 1.9796 -0.0000 0.0000 0.0000 51.0206 -21.6571 10.4306 150.7413 23.8371 -77.9190 -0.0000 0.0000 0.0000 10.9492 -67.8437 7.3759 42.2639 35.1877 -13.9749 -0.0000 0.0000 0.0000
0.3355 -6.8068 -0.2119 -38.2950 -50.7978 78.5542 -0.0000 0.0000 0.0000 -0.0000 0.0000 0.0000 -3.6471 19.5005 0.6269 -0.0000 0.0000 0.0000 109.7321 -11.2015 -7.8951 -79.6069 76.2101 -86.5277 -0.0000 0.0000 0.0000 -22.7754 31.1286 -108.2575 -0.0119 0.0482 -152.2709 -0.0000 0.0000 0.0000 70.8425 -32.0669 23.1031 150.9737 6.4494 -24.5579 -0.0000 0.0000 0.0000 13.7272 -61.0423 8.1181 40.7258 24.6813 -9.2847 -0.0000 0.0000 0.0000
0.3161 -6.8333 -0.1835 -29.5139 -47.1452 77.1513 -0.0000 0.0000 0.0000 -0.0000 0.0000 0.0000 -17.4435 19.6669 3.0464 -0.0000 0.0000 0.0000 -111.2333 5.6542 -3.8708 114.4840 -27.5523 -17.9296 -0.0000 0.0000 0.0000 -15.1184 26.5487 -121.2845 28.9713 -46.1228 -117.4989 -0.0000 0.0000 0.0000 62.1831 -23.6044 14.3635 128.2257 -2.0650 4.2536 -0.0000 0.0000 0.0000 34.7238 -54.0654 18.1278 36.6190 34.2376 -11.6387 -0.0000 0.0000 0.0000
0.2109 -6.8870 -0.1266 -12.0798 -19.8618 60.8963 -0.0000 0.0000 0.0000 -0.0000 0.0000 0.0000 137.7370 -1.8478 4.7785 -0.0000 0.0000 0.0000 -119.4823 23.0870 -13.5899 62.5724 14.2740 23.2857 -0.0000 0.0000 0.0000 9.9732 -27.7801 -141.1307 90.9985 43.7737 43.0872 -0.0000 0.0000 0.0000 21.1735 0.8306 -0.1552 86.2035 6.2905 -5.8876 -0.0000 0.0000 0.0000 44.1169 -24.0854 9.8815 -10.6099 41.3266 4.0112 -0.0000 0.0000 0.0000
0.0594 -6.8979 -0.0795 11.9379 27.8077 -42.7199 -0.0000 0.0000 0.0000 -0.0000 0.0000 0.0000 -5.0300 70.5108 3.5567 -0.0000 0.0000 0.0000 -40.8145 28.1296 -67.9122 -64.6257 -33.0810 50.3045 -0.0000 0.0000 0.0000 137.7172 14.4815 5.6255 -54.3396 -23.7366 44.5333 -0.0000 0.0000 0.0000 -9.6560 -12.0960 -1.0255 2.4041 37.9943 -0.8278 -0.0000 0.0000 0.0000 17.4723 -11.8355 1.8251 -31.6924 5.2410 1.4886 -0.0000 0.0000 0.0000
-0.0560 -6.9145 -0.0152 25.3129 53.5586 -54.2696 -0.0000 0.0000 0.0000 -0.0000 0.0000 0.0000 5.7187 25.2037 -1.2795 -0.0000 0.0000 0.0000 37.0142 -9.9958 -29.2833 -104.7061 23.7665 -18.4404 -0.0000 0.0000 0.0000 9.4030 31.4741 147.4594 -4.9009 2.3485 -51.1867 -0.0000 0.0000 0.0000 2.7755 -32.5923 0.8115 -7.0284 41.5256 2.6675 -0.0000 0.0000 0.0000 0.0688 -29.8217 0.0183 1.6786 12.9884 -0.1911 -0.0000 0.0000 0.0000
-0.1016 -6.9210 0.0275 32.6253 60.4779 -54.7451 -0.0000 0.0000 0.0000 -0.0000 0.0000 0.0000 9.6751 14.8645 -1.2651 -0.0000 0.0000 0.0000 47.7779 -11.5102 -25.6391 -66.0225 23.5489 -35.5766 -0.0000 0.0000 0.0000 -6.8678 -20.2363 142.8301 34.6510 -8.8042 -27.7246 -0.0000 0.0000 0.0000 -2.9091 -36.3673 -0.9557 5.8361 49.6331 -2.7005 -0.0000 0.0000 0.0000 -16.9264 -29.5181 -4.4896 16.1435 13.9553 -1.9888 -0.0000 0.0000 0.0000
-0.0588 -6.9111 0.0244 26.6000 56.6775 -46.9226 -0.0000 0.0000 0.0000 -0.0000 0.0000 0.0000 11.8555 15.2963 -1.5976 -0.0000 0.0000 0.0000 36.9518 -14.1591 -40.7799 -67.5714 23.7789 -34.9346 -0.0000 0.0000 0.0000 1.6700 4.6278 140.3333 14.7871 -5.6368 -41.5518 -0.0000 0.0000 0.0000 -11.5009 -22.4158 -2.2863 15.5515 56.1841 -8.3375 -0.0000 0.0000 0.0000 -18.0849 -22.4214 -3.6133 14.3677 18.8058 -2.3915 -0.0000 0.0000 0.0000
-0.0435 -6.9044 0.0323 22.4454 50.1400 -44.4016 -0.0000 0.0000 0.0000 -0.0000 0.0000 0.0000 12.8888 16.8638 -1.9185 -0.0000 0.0000 0.0000 26.3630 -13.2270 -52.6748 -60.0888 19.2964 -32.7590 -0.0000 0.0000 0.0000 15.2030 31.1881 128.8881 -8.6742 3.4869 -43.7347 -0.0000 0.0000 0.0000 -14.2368 -12.3913 -1.5534 7.9691 49.4208 -3.6718 -0.0000 0.0000 0.0000 -18.4612 -14.6555 -2.3944 11.5616 17.5272 -1.7882 -0.0000 0.0000 0.0000
-0.0359 -6.8835 0.0302 17.5976 41.4555 -38.3472 -0.0000 0.0000 0.0000 -0.0000 0.0000 0.0000 13.8184 19.5852 -2.3963 -0.0000 0.0000 0.0000 18.2616 -10.2798 -58.4671 -63.9039 20.4070 -32.1947 -0.0000 0.0000 0.0000 42.5536 49.5748 99.7206 -30.8731 9.7108 -34.1988 -0.0000 0.0000 0.0000 -14.0074 -4.3424 -0.5337 4.0448 41.0437 -1.5146 -0.0000 0.0000 0.0000 -16.0966 -7.1474 -1.0119 7.9813 14.1103 -0.9894 -0.0000 0.0000 0.0000
-0.0342 -6.8520 0.0177 12.7836 29.2424 -30.3710 -0.0000 0.0000 0.0000 -0.0000 0.0000 0.0000 14.9752 22.9007 -3.0499 -0.0000 0.0000 0.0000 15.3597 -8.9316 -60.1573 -77.9032 28.4060 -34.7692 -0.0000 0.0000 0.0000 93.8567 45.4884 42.8010 -61.6275 4.8007 -8.0403 -0.0000 0.0000 0.0000 -11.0832 3.6101 0.3504 -0.3672 30.7269 0.1009 -0.0000 0.0000 0.0000 -8.6958 1.5069 0.1146 -1.7243 6.1384 0.0925 -0.0000 0.0000 0.0000
-0.0386 -6.8100 -0.0053 8.6231 15.3262 -20.5629 -0.0000 0.0000 0.0000 -0.0000 0.0000 0.0000 16.8643 23.7287 -3.5676 -0.0000 0.0000 0.0000 29.4755 -14.4860 -51.5747 -91.5062 51.0066 -49.8455 -0.0000 0.0000 0.0000 113.7753 -21.1310 -13.8718 -15.4714 -18.8377 101.3739 -0.0000 0.0000 0.0000 -4.5417 9.7415 0.3872 -5.5581 22.4254 1.1026 -0.0000 0.0000 0.0000 5.2723 7.2821 -0.3357 -17.6094 0.0330 0.0051 -0.0000 0.0000 0.0000
